{"fetched_at":"2026-07-17T17:37:58.322Z","source":"https://celestrak.org/NORAD/elements/gp.php?GROUP=spire&FORMAT=JSON","constellation":"spire","records":[{"OBJECT_NAME":"LEMUR-2-MYRA","OBJECT_ID":"2025-276EC","EPOCH":"2026-07-17T00:05:05.406720","CLASSIFICATION_TYPE":"U","MEAN_MOTION":15.00601403,"ECCENTRICITY":0.00186724,"INCLINATION":97.522,"RA_OF_ASC_NODE":267.9128,"ARG_OF_PERICENTER":48.8003,"MEAN_ANOMALY":311.4828,"EPHEMERIS_TYPE":0,"NORAD_CAT_ID":66787,"ELEMENT_SET_NO":999,"REV_AT_EPOCH":3468,"BSTAR":0.00026550276,"MEAN_MOTION_DOT":0.00003308,"MEAN_MOTION_DDOT":0},{"OBJECT_NAME":"LEMUR-2 FIKRETDENGIZ","OBJECT_ID":"2026-004A","EPOCH":"2026-07-16T23:35:09.729600","CLASSIFICATION_TYPE":"U","MEAN_MOTION":14.8852357,"ECCENTRICITY":0.00100761,"INCLINATION":97.8028,"RA_OF_ASC_NODE":196.0882,"ARG_OF_PERICENTER":50.707,"MEAN_ANOMALY":309.5038,"EPHEMERIS_TYPE":0,"NORAD_CAT_ID":67363,"ELEMENT_SET_NO":999,"REV_AT_EPOCH":2771,"BSTAR":0.00018209536,"MEAN_MOTION_DOT":0.00001639,"MEAN_MOTION_DDOT":0},{"OBJECT_NAME":"TWILIGHT-1 OBJECT B","OBJECT_ID":"2026-004B","EPOCH":"2026-07-17T05:20:26.634336","CLASSIFICATION_TYPE":"U","MEAN_MOTION":14.87797097,"ECCENTRICITY":0.00095958,"INCLINATION":97.8076,"RA_OF_ASC_NODE":196.324,"ARG_OF_PERICENTER":39.9869,"MEAN_ANOMALY":320.2053,"EPHEMERIS_TYPE":0,"NORAD_CAT_ID":67364,"ELEMENT_SET_NO":999,"REV_AT_EPOCH":2775,"BSTAR":0.000099477984,"MEAN_MOTION_DOT":0.00000854,"MEAN_MOTION_DDOT":0},{"OBJECT_NAME":"LEMUR-2-MARIO-SOUSA","OBJECT_ID":"2026-004C","EPOCH":"2026-07-17T05:32:56.575968","CLASSIFICATION_TYPE":"U","MEAN_MOTION":14.88736944,"ECCENTRICITY":0.00096856,"INCLINATION":97.8001,"RA_OF_ASC_NODE":196.3279,"ARG_OF_PERICENTER":51.6541,"MEAN_ANOMALY":308.5545,"EPHEMERIS_TYPE":0,"NORAD_CAT_ID":67365,"ELEMENT_SET_NO":999,"REV_AT_EPOCH":2776,"BSTAR":0.00021946679,"MEAN_MOTION_DOT":0.00001998,"MEAN_MOTION_DDOT":0},{"OBJECT_NAME":"LEMUR-2-SONNENBLUME","OBJECT_ID":"2026-004E","EPOCH":"2026-07-16T23:10:22.775232","CLASSIFICATION_TYPE":"U","MEAN_MOTION":14.88458139,"ECCENTRICITY":0.00092985,"INCLINATION":97.8001,"RA_OF_ASC_NODE":196.0381,"ARG_OF_PERICENTER":53.2445,"MEAN_ANOMALY":306.9625,"EPHEMERIS_TYPE":0,"NORAD_CAT_ID":67367,"ELEMENT_SET_NO":999,"REV_AT_EPOCH":2772,"BSTAR":0.00014780586,"MEAN_MOTION_DOT":0.00001318,"MEAN_MOTION_DDOT":0},{"OBJECT_NAME":"LEMUR-2-WOBLER","OBJECT_ID":"2026-004F","EPOCH":"2026-07-17T05:21:41.175936","CLASSIFICATION_TYPE":"U","MEAN_MOTION":14.88706069,"ECCENTRICITY":0.00093612,"INCLINATION":97.8052,"RA_OF_ASC_NODE":196.4452,"ARG_OF_PERICENTER":44.1369,"MEAN_ANOMALY":316.0594,"EPHEMERIS_TYPE":0,"NORAD_CAT_ID":67368,"ELEMENT_SET_NO":999,"REV_AT_EPOCH":2776,"BSTAR":0.00020858033,"MEAN_MOTION_DOT":0.00001894,"MEAN_MOTION_DDOT":0},{"OBJECT_NAME":"LEMUR-2-GRAM-E-SUE","OBJECT_ID":"2026-004H","EPOCH":"2026-07-16T22:43:23.486304","CLASSIFICATION_TYPE":"U","MEAN_MOTION":14.88593718,"ECCENTRICITY":0.00084893,"INCLINATION":97.7987,"RA_OF_ASC_NODE":196.0361,"ARG_OF_PERICENTER":56.2455,"MEAN_ANOMALY":303.957,"EPHEMERIS_TYPE":0,"NORAD_CAT_ID":67370,"ELEMENT_SET_NO":999,"REV_AT_EPOCH":2772,"BSTAR":0.00013514085,"MEAN_MOTION_DOT":0.00001204,"MEAN_MOTION_DDOT":0},{"OBJECT_NAME":"LEMUR-2-KATIE","OBJECT_ID":"2026-004AA","EPOCH":"2026-07-16T23:15:17.492544","CLASSIFICATION_TYPE":"U","MEAN_MOTION":14.90260082,"ECCENTRICITY":0.00033398,"INCLINATION":97.8044,"RA_OF_ASC_NODE":196.6155,"ARG_OF_PERICENTER":29.9962,"MEAN_ANOMALY":330.1447,"EPHEMERIS_TYPE":0,"NORAD_CAT_ID":67387,"ELEMENT_SET_NO":999,"REV_AT_EPOCH":2774,"BSTAR":0.00021596188,"MEAN_MOTION_DOT":0.00002041,"MEAN_MOTION_DDOT":0},{"OBJECT_NAME":"LEMUR-2-HCS-BAZUS","OBJECT_ID":"2026-004AB","EPOCH":"2026-07-17T05:39:39.137760","CLASSIFICATION_TYPE":"U","MEAN_MOTION":14.90269255,"ECCENTRICITY":0.00028432,"INCLINATION":97.804,"RA_OF_ASC_NODE":196.8571,"ARG_OF_PERICENTER":28.4863,"MEAN_ANOMALY":331.651,"EPHEMERIS_TYPE":0,"NORAD_CAT_ID":67388,"ELEMENT_SET_NO":999,"REV_AT_EPOCH":2778,"BSTAR":0.00016290249,"MEAN_MOTION_DOT":0.00001526,"MEAN_MOTION_DDOT":0}]}
